ONEWEB-0597             
1 54663U 22166X   25085.16377406  .00000091  00000+0  18875-3 0  9996
2 54663  87.9327 333.3161 0001947  87.9384 272.1973 13.21824201112821
ONEWEB-0600             
1 54664U 22166Y   25084.91933151  .00000082  00000+0  16673-3 0  9998
2 54664  87.9305 333.3830 0001931  83.4144 276.7210 13.21828917112292
ONEWEB-0601             
1 54665U 22166Z   25084.68435765 -.00000024  00000+0 -88453-4 0  9995
2 54665  87.9327 333.4206 0001787  93.5365 266.5973 13.21828090112454
ONEWEB-0602             
1 54666U 22166AA  25085.17953943  .00000088  00000+0  18261-3 0  9991
2 54666  87.9326 333.3236 0002001  86.5517 273.5846 13.21829200112830
ONEWEB-0603             
1 54667U 22166AB  25085.18426627  .00000145  00000+0  31893-3 0  9997
2 54667  87.9299 333.2885 0001940  89.6133 270.5223 13.21829075112755
ONEWEB-0604             
1 54668U 22166AC  25085.17165916  .00000137  00000+0  29970-3 0  9992
2 54668  87.9318 333.2911 0002053  85.2309 274.9059 13.21828368112727
ONEWEB-0605             
1 54669U 22166AD  25084.93825745  .00000127  00000+0  27523-3 0  9990
2 54669  87.9320 333.3685 0001661 105.3703 254.7615 13.21828580112298
ONEWEB-0606             
1 54670U 22166AE  25085.18742339  .00000109  00000+0  23171-3 0  9992
2 54670  87.9324 333.3249 0001709  74.7460 285.3863 13.21828928112844
